FENGYUN 4A              
1 41882U 16077A   26165.99838347 -.00000354  00000+0  00000+0 0  9996
2 41882   2.3160  80.3067 0008715 153.1278 153.0482  1.00269655 34902
FORMOSAT-5              
1 42920U 17049A   26166.19089263  .00000135  00000+0  45341-4 0  9996
2 42920  98.2254 241.5449 0012698  89.8753 270.3897 14.50898193466385
FENGYUN 3D              
1 43010U 17072A   26166.17406478  .00000152  00000+0  93519-4 0  9991
2 43010  99.0119 140.5597 0002599  65.6998 294.4449 14.19739829444706
GAOFEN-1 02             
1 43259U 18031A   26166.19760260  .00000759  00000+0  11657-3 0  9991
2 43259  98.0533 228.7301 0003922  39.0518 321.0974 14.76454303442405
GAOFEN-1 03             
1 43260U 18031B   26166.17576755  .00000628  00000+0  97676-4 0  9996
2 43260  98.0523 228.5671 0003782  83.1384 277.0255 14.76466518442390
FENGYUN 3E              
1 49008U 21062A   26166.15815579 -.00000202  00000+0 -74342-4 0  9993
2 49008  98.7486 169.5886 0002846  89.1478 271.0024 14.19903252256291
FENGYUN 3G              
1 56232U 23055A   26165.98261101  .00022053  00000+0  35853-3 0  9999
2 56232  49.9936 357.3811 0006929 287.4907  72.5303 15.52542988179669
FENGYUN 3F              
1 57490U 23111A   26166.14212078  .00000054  00000+0  45887-4 0  9993
2 57490  98.6835 236.1888 0001583  94.9423 265.1934 14.19938807148575
FENGYUN 3H              
1 65815U 25219A   26166.06800233  .00000037  00000+0  37909-4 0  9998
2 65815  98.6768 106.8783 0001587  77.6228 282.5126 14.19920114 37083
