{
 "generated_at": "2026-06-15T10:55:27Z",
 "sources": [
  {
   "name": "CelesTrak",
   "url": "https://celestrak.org/NORAD/elements/",
   "license": "frei verfügbar; Attribution. Ursprünglich USSPACECOM/Space-Track."
  },
  {
   "name": "GCAT (J. McDowell, planet4589.org)",
   "url": "https://planet4589.org/space/gcat/",
   "license": "CC-BY 4.0"
  }
 ],
 "satellites": [
  {
   "norad": 43010,
   "name": "FENGYUN 3D",
   "intl": "2017-072A",
   "group": "weather",
   "gcat": {
    "class": "C",
    "category": "MET",
    "owner": "NSMC",
    "state": "CN"
   },
   "omm": {
    "OBJECT_NAME": "FENGYUN 3D",
    "OBJECT_ID": "2017-072A",
    "EPOCH": "2026-06-15T04:10:39.196992",
    "MEAN_MOTION": 14.19739829,
    "ECCENTRICITY": 0.0002599,
    "INCLINATION": 99.0119,
    "RA_OF_ASC_NODE": 140.5597,
    "ARG_OF_PERICENTER": 65.6998,
    "MEAN_ANOMALY": 294.4449,
    "EPHEMERIS_TYPE": 0,
    "CLASSIFICATION_TYPE": "U",
    "NORAD_CAT_ID": 43010,
    "ELEMENT_SET_NO": 999,
    "REV_AT_EPOCH": 44470,
    "BSTAR": 0.000093519,
    "MEAN_MOTION_DOT": 0.00000152,
    "MEAN_MOTION_DDOT": 0
   }
  },
  {
   "norad": 49008,
   "name": "FENGYUN 3E",
   "intl": "2021-062A",
   "group": "weather",
   "gcat": {
    "class": "C",
    "category": "MET",
    "owner": "NSMC",
    "state": "CN"
   },
   "omm": {
    "OBJECT_NAME": "FENGYUN 3E",
    "OBJECT_ID": "2021-062A",
    "EPOCH": "2026-06-15T03:47:44.660256",
    "MEAN_MOTION": 14.19903252,
    "ECCENTRICITY": 0.0002846,
    "INCLINATION": 98.7486,
    "RA_OF_ASC_NODE": 169.5886,
    "ARG_OF_PERICENTER": 89.1478,
    "MEAN_ANOMALY": 271.0024,
    "EPHEMERIS_TYPE": 0,
    "CLASSIFICATION_TYPE": "U",
    "NORAD_CAT_ID": 49008,
    "ELEMENT_SET_NO": 999,
    "REV_AT_EPOCH": 25629,
    "BSTAR": -0.000074342,
    "MEAN_MOTION_DOT": -0.00000202,
    "MEAN_MOTION_DDOT": 0
   }
  },
  {
   "norad": 57490,
   "name": "FENGYUN 3F",
   "intl": "2023-111A",
   "group": "weather",
   "gcat": {
    "class": "C",
    "category": "MET",
    "owner": "NSMC",
    "state": "CN"
   },
   "omm": {
    "OBJECT_NAME": "FENGYUN 3F",
    "OBJECT_ID": "2023-111A",
    "EPOCH": "2026-06-15T03:24:39.235392",
    "MEAN_MOTION": 14.19938807,
    "ECCENTRICITY": 0.0001583,
    "INCLINATION": 98.6835,
    "RA_OF_ASC_NODE": 236.1888,
    "ARG_OF_PERICENTER": 94.9423,
    "MEAN_ANOMALY": 265.1934,
    "EPHEMERIS_TYPE": 0,
    "CLASSIFICATION_TYPE": "U",
    "NORAD_CAT_ID": 57490,
    "ELEMENT_SET_NO": 999,
    "REV_AT_EPOCH": 14857,
    "BSTAR": 0.000045887,
    "MEAN_MOTION_DOT": 5.4e-7,
    "MEAN_MOTION_DDOT": 0
   }
  },
  {
   "norad": 56232,
   "name": "FENGYUN 3G",
   "intl": "2023-055A",
   "group": "weather",
   "gcat": {
    "class": "C",
    "category": "MET",
    "owner": "NSMC",
    "state": "CN"
   },
   "omm": {
    "OBJECT_NAME": "FENGYUN 3G",
    "OBJECT_ID": "2023-055A",
    "EPOCH": "2026-06-14T23:34:57.591264",
    "MEAN_MOTION": 15.52542988,
    "ECCENTRICITY": 0.0006929,
    "INCLINATION": 49.9936,
    "RA_OF_ASC_NODE": 357.3811,
    "ARG_OF_PERICENTER": 287.4907,
    "MEAN_ANOMALY": 72.5303,
    "EPHEMERIS_TYPE": 0,
    "CLASSIFICATION_TYPE": "U",
    "NORAD_CAT_ID": 56232,
    "ELEMENT_SET_NO": 999,
    "REV_AT_EPOCH": 17966,
    "BSTAR": 0.00035853,
    "MEAN_MOTION_DOT": 0.00022053,
    "MEAN_MOTION_DDOT": 0
   }
  },
  {
   "norad": 65815,
   "name": "FENGYUN 3H",
   "intl": "2025-219A",
   "group": "weather",
   "gcat": {
    "class": "C",
    "category": "MET",
    "owner": "NSMC",
    "state": "CN"
   },
   "omm": {
    "OBJECT_NAME": "FENGYUN 3H",
    "OBJECT_ID": "2025-219A",
    "EPOCH": "2026-06-15T01:37:55.401312",
    "MEAN_MOTION": 14.19920114,
    "ECCENTRICITY": 0.0001587,
    "INCLINATION": 98.6768,
    "RA_OF_ASC_NODE": 106.8783,
    "ARG_OF_PERICENTER": 77.6228,
    "MEAN_ANOMALY": 282.5126,
    "EPHEMERIS_TYPE": 0,
    "CLASSIFICATION_TYPE": "U",
    "NORAD_CAT_ID": 65815,
    "ELEMENT_SET_NO": 999,
    "REV_AT_EPOCH": 3708,
    "BSTAR": 0.000037909,
    "MEAN_MOTION_DOT": 3.7e-7,
    "MEAN_MOTION_DDOT": 0
   }
  },
  {
   "norad": 41882,
   "name": "FENGYUN 4A",
   "intl": "2016-077A",
   "group": "weather",
   "gcat": {
    "class": "C",
    "category": "MET",
    "owner": "NSMC",
    "state": "CN"
   },
   "omm": {
    "OBJECT_NAME": "FENGYUN 4A",
    "OBJECT_ID": "2016-077A",
    "EPOCH": "2026-06-14T23:57:40.331808",
    "MEAN_MOTION": 1.00269655,
    "ECCENTRICITY": 0.0008715,
    "INCLINATION": 2.316,
    "RA_OF_ASC_NODE": 80.3067,
    "ARG_OF_PERICENTER": 153.1278,
    "MEAN_ANOMALY": 153.0482,
    "EPHEMERIS_TYPE": 0,
    "CLASSIFICATION_TYPE": "U",
    "NORAD_CAT_ID": 41882,
    "ELEMENT_SET_NO": 999,
    "REV_AT_EPOCH": 3490,
    "BSTAR": 0,
    "MEAN_MOTION_DOT": -0.00000354,
    "MEAN_MOTION_DDOT": 0
   }
  },
  {
   "norad": 42920,
   "name": "FORMOSAT-5",
   "intl": "2017-049A",
   "group": "resource",
   "gcat": {
    "class": "C",
    "category": "IMG/SCI",
    "owner": "NSPO",
    "state": "TW"
   },
   "omm": {
    "OBJECT_NAME": "FORMOSAT-5",
    "OBJECT_ID": "2017-049A",
    "EPOCH": "2026-06-15T04:34:53.123232",
    "MEAN_MOTION": 14.50898193,
    "ECCENTRICITY": 0.0012698,
    "INCLINATION": 98.2254,
    "RA_OF_ASC_NODE": 241.5449,
    "ARG_OF_PERICENTER": 89.8753,
    "MEAN_ANOMALY": 270.3897,
    "EPHEMERIS_TYPE": 0,
    "CLASSIFICATION_TYPE": "U",
    "NORAD_CAT_ID": 42920,
    "ELEMENT_SET_NO": 999,
    "REV_AT_EPOCH": 46638,
    "BSTAR": 0.000045341,
    "MEAN_MOTION_DOT": 0.00000135,
    "MEAN_MOTION_DDOT": 0
   }
  },
  {
   "norad": 43259,
   "name": "GAOFEN-1 02",
   "intl": "2018-031A",
   "group": "resource",
   "gcat": {
    "class": "C",
    "category": "IMG",
    "owner": "CNSAS",
    "state": "CN"
   },
   "omm": {
    "OBJECT_NAME": "GAOFEN-1 02",
    "OBJECT_ID": "2018-031A",
    "EPOCH": "2026-06-15T04:44:32.864640",
    "MEAN_MOTION": 14.76454303,
    "ECCENTRICITY": 0.0003922,
    "INCLINATION": 98.0533,
    "RA_OF_ASC_NODE": 228.7301,
    "ARG_OF_PERICENTER": 39.0518,
    "MEAN_ANOMALY": 321.0974,
    "EPHEMERIS_TYPE": 0,
    "CLASSIFICATION_TYPE": "U",
    "NORAD_CAT_ID": 43259,
    "ELEMENT_SET_NO": 999,
    "REV_AT_EPOCH": 44240,
    "BSTAR": 0.00011657,
    "MEAN_MOTION_DOT": 0.00000759,
    "MEAN_MOTION_DDOT": 0
   }
  },
  {
   "norad": 43260,
   "name": "GAOFEN-1 03",
   "intl": "2018-031B",
   "group": "resource",
   "gcat": {
    "class": "C",
    "category": "IMG",
    "owner": "CNSAS",
    "state": "CN"
   },
   "omm": {
    "OBJECT_NAME": "GAOFEN-1 03",
    "OBJECT_ID": "2018-031B",
    "EPOCH": "2026-06-15T04:13:06.316320",
    "MEAN_MOTION": 14.76466518,
    "ECCENTRICITY": 0.0003782,
    "INCLINATION": 98.0523,
    "RA_OF_ASC_NODE": 228.5671,
    "ARG_OF_PERICENTER": 83.1384,
    "MEAN_ANOMALY": 277.0255,
    "EPHEMERIS_TYPE": 0,
    "CLASSIFICATION_TYPE": "U",
    "NORAD_CAT_ID": 43260,
    "ELEMENT_SET_NO": 999,
    "REV_AT_EPOCH": 44239,
    "BSTAR": 0.000097676,
    "MEAN_MOTION_DOT": 0.00000628,
    "MEAN_MOTION_DDOT": 0
   }
  }
 ]
}
